NORAD_CAT_ID,OBJECT_NAME,OBJECT_TYPE,EPOCH,MEAN_MOTION,ECCENTRICITY,INCLINATION,RA_OF_ASC_NODE,ARG_OF_PERICENTER,MEAN_ANOMALY,BSTAR,MEAN_MOTION_DOT,MEAN_MOTION_DDOT,TLE_LINE0,TLE_LINE1,TLE_LINE2,SEMIMAJOR_AXIS,PERIOD,APOGEE,PERIGEE,DECAYED
52281.0,STARLINK-3779,PAYLOAD,2022-08-04 14:00:01,15.08827233,0.0002228,53.2146,243.8709,42.6165,251.6781,0.001277,0.00020087,0.0,0 STARLINK-3779,1 52281U 22041W   22216.58334491  .00020087  00000-0  12770-2 0  9993,2 52281  53.2146 243.8709 0002228  42.6165 251.6781 15.08827233 17357,6917.919,95.438,541.326,538.243,0.0
52281.0,STARLINK-3779,PAYLOAD,2022-08-04 22:00:00,15.08814798,0.0002083,53.2147,242.3727,47.5442,258.3489,0.0025243,0.00040088,0.0,0 STARLINK-3779,1 52281U 22041W   22216.91667824  .00040088  00000-0  25243-2 0  9991,2 52281  53.2147 242.3727 0002083  47.5442 258.3489 15.08814798  1302,6917.956999999999,95.439,541.263,538.381,0.0
52281.0,STARLINK-3779,PAYLOAD,2022-08-05 14:00:01,15.08836332,0.000231,53.2146,239.3815,43.1685,285.9666,0.00078733,0.00012263,0.0,0 STARLINK-3779,1 52281U 22041W   22217.58335648  .00012263  00000-0  78733-3 0  9998,2 52281  53.2146 239.3815 0002310  43.1685 285.9666 15.08836332 17509,6917.892,95.438,541.355,538.159,0.0
52281.0,STARLINK-3779,PAYLOAD,2022-08-05 22:00:00,15.08818715,0.0002173,53.2148,237.8834,48.2519,292.4271,0.0028448,0.00045252,0.0,0 STARLINK-3779,1 52281U 22041W   22217.91667824  .00045252  00000-0  28448-2 0  9990,2 52281  53.2148 237.8834 0002173  48.2519 292.4271 15.08818715  1305,6917.945,95.439,541.314,538.307,0.0
52281.0,STARLINK-3779,PAYLOAD,2022-08-06 14:00:01,15.08847137,0.0002401999999999,53.2148,234.8922,43.6872,320.1832,0.00034372,5.187e-05,0.0,0 STARLINK-3779,1 52281U 22041W   22218.58334491  .00005187  00000-0  34372-3 0  9992,2 52281  53.2148 234.8922 0002402  43.6872 320.1832 15.08847137 17653,6917.859,95.437,541.385,538.062,0.0
52281.0,STARLINK-3779,PAYLOAD,2022-08-06 22:00:00,15.08834782,0.0002215,53.215,233.3941,47.9303,327.5545,3.3811e-05,2.5e-06,0.0,0 STARLINK-3779,1 52281U 22041W   22218.91667824  .00000250  00000-0  33811-4 0  9992,2 52281  53.2150 233.3941 0002215  47.9303 327.5545 15.08834782  1308,6917.896,95.438,541.294,538.229,0.0
52281.0,STARLINK-3779,PAYLOAD,2022-08-07 14:00:01,15.08829416,0.0002420999999999,53.215,230.4029,43.1018,355.5481,-0.00017242,-3.031e-05,0.0,0 STARLINK-3779,1 52281U 22041W   22219.58334491 -.00003031  00000-0 -17242-3 0  9998,2 52281  53.2150 230.4029 0002421  43.1018 355.5481 15.08829416 17814,6917.913000000001,95.438,541.453,538.1030000000002,0.0
52281.0,STARLINK-3779,PAYLOAD,2022-08-07 22:00:00,15.08807376,0.0002254,53.2152,228.9049,48.3907,1.8525,0.0029527,0.00046976,0.0,0 STARLINK-3779,1 52281U 22041W   22219.91667824  .00046976  00000-0  29527-2 0  9995,2 52281  53.2152 228.9049 0002254  48.3907   1.8525 15.08807376  1306,6917.98,95.44,541.404,538.286,0.0
52281.0,STARLINK-3779,PAYLOAD,2022-08-08 14:00:01,15.08845723,0.0002469,53.2149,225.9136,44.8295,28.6439,-0.00041519,-6.891e-05,0.0,0 STARLINK-3779,1 52281U 22041W   22220.58335648 -.00006891  00000-0 -41519-3 0  9996,2 52281  53.2149 225.9136 0002469  44.8295  28.6439 15.08845723 17963,6917.863,95.437,541.436,538.02,0.0
52281.0,STARLINK-3779,PAYLOAD,2022-08-08 22:00:00,15.08823289,0.0002293,53.215,224.4157,50.2113,34.8072,0.0028953,0.00046072,0.0,0 STARLINK-3779,1 52281U 22041W   22220.91667824  .00046072  00000-0  28953-2 0  9996,2 52281  53.2150 224.4157 0002293  50.2113  34.8072 15.08823289  1303,6917.931,95.439,541.383,538.21,0.0
52281.0,STARLINK-3779,PAYLOAD,2022-08-09 14:00:01,15.08866234,0.0002437,53.2146,221.4243,45.7733,62.4404,-0.0037103,-0.00058901,0.0,0 STARLINK-3779,1 52281U 22041W   22221.58334491 -.00058901  00000-0 -37103-2 0  9994,2 52281  53.2146 221.4243 0002437  45.7733  62.4404 15.08866234  1301,6917.8,95.436,541.351,537.979,0.0
52281.0,STARLINK-3779,PAYLOAD,2022-08-09 22:00:00,15.088088399999998,0.0002225,53.2147,219.9264,50.4364,69.3859,0.0025391,0.00040319,0.0,0 STARLINK-3779,1 52281U 22041W   22221.91667824  .00040319  00000-0  25391-2 0  9998,2 52281  53.2147 219.9264 0002225  50.4364  69.3859 15.08808840  1304,6917.976,95.44,541.38,538.3009999999998,0.0
52281.0,STARLINK-3779,PAYLOAD,2022-08-10 14:00:01,15.08843413,0.0002400999999999,53.2148,216.9349,47.2718,95.7042,-0.0013066,-0.00021026,0.0,0 STARLINK-3779,1 52281U 22041W   22222.58334491 -.00021026  00000-0 -13066-2 0  9995,2 52281  53.2148 216.9349 0002401  47.2718  95.7042 15.08843413  1301,6917.87,95.437,541.396,538.0740000000002,0.0
52281.0,STARLINK-3779,PAYLOAD,2022-08-10 16:00:00,15.08847474,0.0002331999999999,53.2151,216.5603,48.8741,186.9986,-0.0021111999999999,-0.00033739,0.0,0 STARLINK-3779,1 52281U 22041W   22222.66667824 -.00033739  00000-0 -21112-2 0  9998,2 52281  53.2151 216.5603 0002332  48.8741 186.9986 15.08847474 18275,6917.858,95.437,541.336,538.109,0.0
52281.0,STARLINK-3779,PAYLOAD,2022-08-10 22:00:00,15.08819461,0.0002262,53.2155,215.4373,52.8948,101.6747,0.0020788,0.00032933,0.0,0 STARLINK-3779,1 52281U 22041W   22222.91667824  .00032933  00000-0  20788-2 0  9997,2 52281  53.2155 215.4373 0002262  52.8948 101.6747 15.08819461  1307,6917.943,95.439,541.373,538.243,0.0
52281.0,STARLINK-3779,PAYLOAD,2022-08-11 06:00:02,15.08839734,0.0002435,53.2161,213.9425,50.0604,116.1588,-0.00090996,-0.00014742,0.0,0 STARLINK-3779,1 52281U 22041W   22223.25002315 -.00014742  00000-0 -90996-3 0  9992,2 52281  53.2161 213.9425 0002435  50.0604 116.1588 15.08839734 18369,6917.880999999999,95.438,541.431,538.062,0.0
52281.0,STARLINK-3779,PAYLOAD,2022-08-11 14:00:01,15.08849287,0.000243,53.2157,212.4457,49.532,128.2058,-0.0018609,-0.00029792,0.0,0 STARLINK-3779,1 52281U 22041W   22223.58334491 -.00029792  00000-0 -18609-2 0  9992,2 52281  53.2157 212.4457 0002430  49.5320 128.2058 15.08849287  1302,6917.852,95.437,541.398,538.036,0.0
52281.0,STARLINK-3779,PAYLOAD,2022-08-11 22:00:00,15.08829515,0.0002329,53.2159,210.9481,55.0784,134.2613,0.0019156,0.00030322,0.0,0 STARLINK-3779,1 52281U 22041W   22223.91667824  .00030322  00000-0  19156-2 0  9995,2 52281  53.2159 210.9481 0002329  55.0784 134.2613 15.08829515 18468,6917.9119999999975,95.438,541.389,538.1659999999998,0.0
52281.0,STARLINK-3779,PAYLOAD,2022-08-12 14:00:01,15.08866426,0.0002467,53.2159,207.9563,51.2337,161.3007,-0.0017590999999999,-0.00028197,0.0,0 STARLINK-3779,1 52281U 22041W   22224.58334491 -.00028197  00000-0 -17591-2 0  9990,2 52281  53.2159 207.9563 0002467  51.2337 161.3007 15.08866426  1305,6917.8,95.436,541.371,537.9580000000002,0.0
52281.0,STARLINK-3779,PAYLOAD,2022-08-12 22:00:01,15.08854928,0.0002376999999999,53.2162,206.4587,56.0556,168.1524,-0.00051494,-8.478e-05,0.0,0 STARLINK-3779,1 52281U 22041W   22224.91668981 -.00008478  00000-0 -51494-3 0  9992,2 52281  53.2162 206.4587 0002377  56.0556 168.1524 15.08854928  1308,6917.835,95.437,541.344,538.055,0.0
52281.0,STARLINK-3779,PAYLOAD,2022-08-13 14:00:01,15.08849694,0.0002456,53.2165,203.467,50.7236,196.612,-0.0020988,-0.00033546,0.0,0 STARLINK-3779,1 52281U 22041W   22225.58334491 -.00033546  00000-0 -20988-2 0  9999,2 52281  53.2165 203.4670 0002456  50.7236 196.6120 15.08849694  1307,6917.851,95.437,541.415,538.0169999999998,0.0
52281.0,STARLINK-3779,PAYLOAD,2022-08-13 22:00:00,15.08828988,0.0002418,53.2169,201.9696,55.8796,203.0486,0.0017084,0.00026998,0.0,0 STARLINK-3779,1 52281U 22041W   22225.91667824  .00026998  00000-0  17084-2 0  9999,2 52281  53.2169 201.9696 0002418  55.8796 203.0486 15.08828988  1308,6917.9140000000025,95.438,541.452,538.106,0.0
52281.0,STARLINK-3779,PAYLOAD,2022-08-14 06:00:02,15.08852839,0.0002566999999999,53.2173,200.4781,53.2399,217.342,-0.0023554,-0.00037595,0.0,0 STARLINK-3779,1 52281U 22041W   22226.25002315 -.00037595  00000-0 -23554-2 0  9991,2 52281  53.2173 200.4781 0002567  53.2399 217.3420 15.08852839 18810,6917.840999999999,95.437,541.482,537.93,0.0
52281.0,STARLINK-3779,PAYLOAD,2022-08-14 14:00:01,15.08967353,0.0002453,53.2173,198.9824,51.0195,231.1343,-0.025762,-0.00390043,0.0,0 STARLINK-3779,1 52281U 22041W   22226.58334491 -.00390043  00000-0 -25762-1 0  9992,2 52281  53.2173 198.9824 0002453  51.0195 231.1343 15.08967353  1305,6917.491,95.429,541.053,537.659,0.0
52281.0,STARLINK-3779,PAYLOAD,2022-08-14 22:00:00,15.08820606,0.0002405,53.2177,197.4805,55.7409,238.0418,0.0016223,0.00025612,0.0,0 STARLINK-3779,1 52281U 22041W   22226.91667824  .00025612  00000-0  16223-2 0  9996,2 52281  53.2177 197.4805 0002405  55.7409 238.0418 15.08820606 18911,6917.94,95.439,541.4680000000002,538.141,0.0
52281.0,STARLINK-3779,PAYLOAD,2022-08-15 14:00:01,15.08862041,0.000246,53.2179,194.4889,51.8156,265.1261,-0.0049906,-0.00078897,0.0,0 STARLINK-3779,1 52281U 22041W   22227.58334491 -.00078897  00000-0 -49906-2 0  9990,2 52281  53.2179 194.4889 0002460  51.8156 265.1261 15.08862041  1300,6917.813,95.436,541.38,537.976,0.0
52281.0,STARLINK-3779,PAYLOAD,2022-08-15 22:00:00,15.08811307,0.0002365,53.2183,192.9918,55.9907,272.5382,0.0012717,0.00019993,0.0,0 STARLINK-3779,1 52281U 22041W   22227.91667824  .00019993  00000-0  12717-2 0  9996,2 52281  53.2183 192.9918 0002365  55.9907 272.5382 15.08811307  1309,6917.968000000003,95.439,541.469,538.197,0.0
52281.0,STARLINK-3779,PAYLOAD,2022-08-16 06:00:02,15.08808997,0.0002552999999999,53.2182,191.4974,51.8232,288.3397,0.00094403,0.00014756,0.0,0 STARLINK-3779,1 52281U 22041W   22228.25002315  .00014756  00000-0  94403-3 0  9997,2 52281  53.2182 191.4974 0002553  51.8232 288.3397 15.08808997 19119,6917.975,95.44,541.606,538.0740000000002,0.0
52281.0,STARLINK-3779,PAYLOAD,2022-08-16 14:00:01,15.08837443,0.0002445,53.2181,190.0001,53.4225,298.2406,-0.0018451,-0.00029533,0.0,0 STARLINK-3779,1 52281U 22041W   22228.58334491 -.00029533  00000-0 -18451-2 0  9995,2 52281  53.2181 190.0001 0002445  53.4225 298.2406 15.08837443  1305,6917.888000000001,95.438,541.445,538.062,0.0
